[{"OBJECT_NAME":"STARLINK-36180","OBJECT_ID":"2025-299N","EPOCH":"2025-12-30T06:00:02.000160","MEAN_MOTION":15.63544278,"ECCENTRICITY":0.00014009,"INCLINATION":42.9994,"RA_OF_ASC_NODE":209.6745,"ARG_OF_PERICENTER":267.5638,"MEAN_ANOMALY":249.8159,"EPHEMERIS_TYPE":0,"CLASSIFICATION_TYPE":"U","NORAD_CAT_ID":67114,"ELEMENT_SET_NO":999,"REV_AT_EPOCH":362,"BSTAR":-0.023744007,"MEAN_MOTION_DOT":-0.01991323,"MEAN_MOTION_DDOT":0},{"OBJECT_NAME":"STARLINK-35892","OBJECT_ID":"2025-299P","EPOCH":"2025-12-30T06:00:02.000160","MEAN_MOTION":15.63555142,"ECCENTRICITY":0.00013877,"INCLINATION":42.999,"RA_OF_ASC_NODE":209.6691,"ARG_OF_PERICENTER":266.1193,"MEAN_ANOMALY":253.0528,"EPHEMERIS_TYPE":0,"CLASSIFICATION_TYPE":"U","NORAD_CAT_ID":67115,"ELEMENT_SET_NO":999,"REV_AT_EPOCH":351,"BSTAR":-0.023716062,"MEAN_MOTION_DOT":-0.01990013,"MEAN_MOTION_DDOT":0},{"OBJECT_NAME":"STARLINK-35738","OBJECT_ID":"2025-299Q","EPOCH":"2025-12-30T06:00:02.000160","MEAN_MOTION":15.63557931,"ECCENTRICITY":0.00014153,"INCLINATION":42.9992,"RA_OF_ASC_NODE":209.6648,"ARG_OF_PERICENTER":267.2812,"MEAN_ANOMALY":253.79,"EPHEMERIS_TYPE":0,"CLASSIFICATION_TYPE":"U","NORAD_CAT_ID":67116,"ELEMENT_SET_NO":999,"REV_AT_EPOCH":351,"BSTAR":-0.023722334,"MEAN_MOTION_DOT":-0.0199069,"MEAN_MOTION_DDOT":0},{"OBJECT_NAME":"STARLINK-35674","OBJECT_ID":"2025-299R","EPOCH":"2025-12-30T06:00:02.000160","MEAN_MOTION":15.63562848,"ECCENTRICITY":0.00014113,"INCLINATION":42.9993,"RA_OF_ASC_NODE":209.6609,"ARG_OF_PERICENTER":268.2237,"MEAN_ANOMALY":254.6866,"EPHEMERIS_TYPE":0,"CLASSIFICATION_TYPE":"U","NORAD_CAT_ID":67117,"ELEMENT_SET_NO":999,"REV_AT_EPOCH":341,"BSTAR":-0.023718862,"MEAN_MOTION_DOT":-0.01990774,"MEAN_MOTION_DDOT":0},{"OBJECT_NAME":"STARLINK-35701","OBJECT_ID":"2025-299S","EPOCH":"2025-12-30T06:00:02.000160","MEAN_MOTION":15.63568295,"ECCENTRICITY":0.0001374,"INCLINATION":42.9991,"RA_OF_ASC_NODE":209.6557,"ARG_OF_PERICENTER":267.4581,"MEAN_ANOMALY":257.3004,"EPHEMERIS_TYPE":0,"CLASSIFICATION_TYPE":"U","NORAD_CAT_ID":67118,"ELEMENT_SET_NO":999,"REV_AT_EPOCH":357,"BSTAR":-0.02366253,"MEAN_MOTION_DOT":-0.01986973,"MEAN_MOTION_DDOT":0},{"OBJECT_NAME":"STARLINK-36179","OBJECT_ID":"2025-299T","EPOCH":"2025-12-30T06:00:02.000160","MEAN_MOTION":15.63606047,"ECCENTRICITY":0.00014242,"INCLINATION":42.9993,"RA_OF_ASC_NODE":209.6466,"ARG_OF_PERICENTER":265.8121,"MEAN_ANOMALY":262.3806,"EPHEMERIS_TYPE":0,"CLASSIFICATION_TYPE":"U","NORAD_CAT_ID":67119,"ELEMENT_SET_NO":999,"REV_AT_EPOCH":362,"BSTAR":-0.023657724,"MEAN_MOTION_DOT":-0.01989285,"MEAN_MOTION_DDOT":0},{"OBJECT_NAME":"STARLINK-36217","OBJECT_ID":"2025-299U","EPOCH":"2025-12-30T06:00:02.000160","MEAN_MOTION":15.6358118,"ECCENTRICITY":0.00013997,"INCLINATION":42.9993,"RA_OF_ASC_NODE":209.6519,"ARG_OF_PERICENTER":266.4884,"MEAN_ANOMALY":260.0244,"EPHEMERIS_TYPE":0,"CLASSIFICATION_TYPE":"U","NORAD_CAT_ID":67120,"ELEMENT_SET_NO":999,"REV_AT_EPOCH":362,"BSTAR":-0.023613199,"MEAN_MOTION_DOT":-0.01984248,"MEAN_MOTION_DDOT":0},{"OBJECT_NAME":"STARLINK-36124","OBJECT_ID":"2025-299V","EPOCH":"2025-12-30T06:00:02.000160","MEAN_MOTION":15.63619345,"ECCENTRICITY":0.00013425,"INCLINATION":42.9993,"RA_OF_ASC_NODE":209.6377,"ARG_OF_PERICENTER":266.371,"MEAN_ANOMALY":265.5169,"EPHEMERIS_TYPE":0,"CLASSIFICATION_TYPE":"U","NORAD_CAT_ID":67121,"ELEMENT_SET_NO":999,"REV_AT_EPOCH":362,"BSTAR":-0.023682793,"MEAN_MOTION_DOT":-0.01992002,"MEAN_MOTION_DDOT":0},{"OBJECT_NAME":"STARLINK-36188","OBJECT_ID":"2025-299W","EPOCH":"2025-12-30T06:00:02.000160","MEAN_MOTION":15.63632345,"ECCENTRICITY":0.00013803,"INCLINATION":42.9992,"RA_OF_ASC_NODE":209.634,"ARG_OF_PERICENTER":264.04,"MEAN_ANOMALY":269.6017,"EPHEMERIS_TYPE":0,"CLASSIFICATION_TYPE":"U","NORAD_CAT_ID":67122,"ELEMENT_SET_NO":999,"REV_AT_EPOCH":362,"BSTAR":-0.023622546,"MEAN_MOTION_DOT":-0.01988486,"MEAN_MOTION_DDOT":0},{"OBJECT_NAME":"STARLINK-36151","OBJECT_ID":"2025-299X","EPOCH":"2025-12-30T06:00:02.000160","MEAN_MOTION":15.63614062,"ECCENTRICITY":0.0001385,"INCLINATION":42.9992,"RA_OF_ASC_NODE":209.643,"ARG_OF_PERICENTER":265.3351,"MEAN_ANOMALY":264.6935,"EPHEMERIS_TYPE":0,"CLASSIFICATION_TYPE":"U","NORAD_CAT_ID":67123,"ELEMENT_SET_NO":999,"REV_AT_EPOCH":362,"BSTAR":-0.023675527,"MEAN_MOTION_DOT":-0.01991129,"MEAN_MOTION_DDOT":0},{"OBJECT_NAME":"STARLINK-36195","OBJECT_ID":"2025-299Y","EPOCH":"2025-12-30T06:00:02.000160","MEAN_MOTION":15.63640979,"ECCENTRICITY":0.00014359,"INCLINATION":42.9995,"RA_OF_ASC_NODE":209.6291,"ARG_OF_PERICENTER":265.0544,"MEAN_ANOMALY":270.4051,"EPHEMERIS_TYPE":0,"CLASSIFICATION_TYPE":"U","NORAD_CAT_ID":67124,"ELEMENT_SET_NO":999,"REV_AT_EPOCH":362,"BSTAR":-0.023611064,"MEAN_MOTION_DOT":-0.0198828,"MEAN_MOTION_DDOT":0},{"OBJECT_NAME":"STARLINK-36219","OBJECT_ID":"2025-299Z","EPOCH":"2025-12-30T06:00:02.000160","MEAN_MOTION":15.63655106,"ECCENTRICITY":0.00013537,"INCLINATION":42.9994,"RA_OF_ASC_NODE":209.6245,"ARG_OF_PERICENTER":265.1594,"MEAN_ANOMALY":272.0828,"EPHEMERIS_TYPE":0,"CLASSIFICATION_TYPE":"U","NORAD_CAT_ID":67125,"ELEMENT_SET_NO":999,"REV_AT_EPOCH":362,"BSTAR":-0.023637331,"MEAN_MOTION_DOT":-0.01991146,"MEAN_MOTION_DDOT":0},{"OBJECT_NAME":"STARLINK-36223","OBJECT_ID":"2025-299AA","EPOCH":"2025-12-30T06:00:02.000160","MEAN_MOTION":15.63654345,"ECCENTRICITY":0.00013814,"INCLINATION":42.9995,"RA_OF_ASC_NODE":209.6194,"ARG_OF_PERICENTER":263.8724,"MEAN_ANOMALY":275.263,"EPHEMERIS_TYPE":0,"CLASSIFICATION_TYPE":"U","NORAD_CAT_ID":67126,"ELEMENT_SET_NO":999,"REV_AT_EPOCH":362,"BSTAR":-0.02357746,"MEAN_MOTION_DOT":-0.01986684,"MEAN_MOTION_DDOT":0},{"OBJECT_NAME":"STARLINK-36164","OBJECT_ID":"2025-299AB","EPOCH":"2025-12-30T06:00:02.000160","MEAN_MOTION":15.63664294,"ECCENTRICITY":0.00013432,"INCLINATION":42.9993,"RA_OF_ASC_NODE":209.6149,"ARG_OF_PERICENTER":264.5546,"MEAN_ANOMALY":276.41,"EPHEMERIS_TYPE":0,"CLASSIFICATION_TYPE":"U","NORAD_CAT_ID":67127,"ELEMENT_SET_NO":999,"REV_AT_EPOCH":362,"BSTAR":-0.023596099,"MEAN_MOTION_DOT":-0.01988728,"MEAN_MOTION_DDOT":0},{"OBJECT_NAME":"STARLINK-35685","OBJECT_ID":"2025-299AC","EPOCH":"2025-12-30T06:00:02.000160","MEAN_MOTION":15.63633644,"ECCENTRICITY":0.00013913,"INCLINATION":42.9993,"RA_OF_ASC_NODE":209.6041,"ARG_OF_PERICENTER":265.2058,"MEAN_ANOMALY":279.9268,"EPHEMERIS_TYPE":0,"CLASSIFICATION_TYPE":"U","NORAD_CAT_ID":67128,"ELEMENT_SET_NO":999,"REV_AT_EPOCH":362,"BSTAR":-0.023627394,"MEAN_MOTION_DOT":-0.01988943,"MEAN_MOTION_DDOT":0},{"OBJECT_NAME":"STARLINK-36214","OBJECT_ID":"2025-299AD","EPOCH":"2025-12-30T06:00:02.000160","MEAN_MOTION":15.63663229,"ECCENTRICITY":0.00014355,"INCLINATION":42.9993,"RA_OF_ASC_NODE":209.6104,"ARG_OF_PERICENTER":264.5921,"MEAN_ANOMALY":278.3053,"EPHEMERIS_TYPE":0,"CLASSIFICATION_TYPE":"U","NORAD_CAT_ID":67129,"ELEMENT_SET_NO":999,"REV_AT_EPOCH":362,"BSTAR":-0.023618616,"MEAN_MOTION_DOT":-0.0199039,"MEAN_MOTION_DDOT":0}]
